{
  "type": "FeatureCollection",
  "features": [
    {
      "type": "Feature",
      "properties": {
        "norad_id": 30947,
        "name": "FENGYUN 1C DEB",
        "group": "fengyun-1c-debris",
        "lat": 5.442453945733095,
        "lon": -119.51175853904695,
        "alt_km": 812.8615159379306,
        "timestamp": "2025-12-17T13:48:37.834261+00:00",
        "meta_object_name": "FENGYUN 1C DEB",
        "meta_object_id": "1999-025BAM",
        "meta_epoch": "2025-12-17T03:45:55.109376",
        "meta_mean_motion": 14.38049614,
        "meta_eccentricity": 0.0095712,
        "meta_inclination": 98.8085,
        "meta_ra_of_asc_node": 240.9057,
        "meta_arg_of_pericenter": 234.5011,
        "meta_mean_anomaly": 124.7218,
        "meta_ephemeris_type": 0,
        "meta_classification_type": "U",
        "meta_norad_cat_id": 30947,
        "meta_element_set_no": 999,
        "meta_rev_at_epoch": 98556,
        "meta_bstar": 0.00024043405,
        "meta_mean_motion_dot": 7.18e-06,
        "meta_mean_motion_ddot": 0,
        "tle_line1": "1 30947U 99025BAM 25351.15688784  .00000718  00000+0  24043-3 0  9992",
        "tle_line2": "2 30947  98.8085 240.9057 0095712 234.5011 124.7218 14.38049614985568"
      },
      "geometry": {
        "type": "Point",
        "coordinates": [
          -119.51175853904695,
          5.442453945733095
        ]
      }
    },
    {
      "type": "Feature",
      "properties": {
        "norad_id": 30949,
        "name": "FENGYUN 1C DEB",
        "group": "fengyun-1c-debris",
        "lat": -53.34230099921791,
        "lon": 153.92813206285257,
        "alt_km": 812.0051899405034,
        "timestamp": "2025-12-17T13:48:37.834271+00:00",
        "meta_object_name": "FENGYUN 1C DEB",
        "meta_object_id": "1999-025BAP",
        "meta_epoch": "2025-12-17T05:59:06.542592",
        "meta_mean_motion": 14.14053162,
        "meta_eccentricity": 0.01162213,
        "meta_inclination": 98.6977,
        "meta_ra_of_asc_node": 345.4804,
        "meta_arg_of_pericenter": 296.8676,
        "meta_mean_anomaly": 79.5847,
        "meta_ephemeris_type": 0,
        "meta_classification_type": "U",
        "meta_norad_cat_id": 30949,
        "meta_element_set_no": 999,
        "meta_rev_at_epoch": 96580,
        "meta_bstar": 0.00022125351,
        "meta_mean_motion_dot": 4.05e-06,
        "meta_mean_motion_ddot": 0,
        "tle_line1": "1 30949U 99025BAP 25351.24938128  .00000405  00000+0  22125-3 0  9996",
        "tle_line2": "2 30949  98.6977 345.4804 0116221 296.8676  79.5847 14.14053162965803"
      },
      "geometry": {
        "type": "Point",
        "coordinates": [
          153.92813206285257,
          -53.34230099921791
        ]
      }
    },
    {
      "type": "Feature",
      "properties": {
        "norad_id": 30954,
        "name": "FENGYUN 1C DEB",
        "group": "fengyun-1c-debris",
        "lat": -63.375536008232814,
        "lon": 109.38908449749879,
        "alt_km": 897.6256937207081,
        "timestamp": "2025-12-17T13:48:37.834281+00:00",
        "meta_object_name": "FENGYUN 1C DEB",
        "meta_object_id": "1999-025BAU",
        "meta_epoch": "2025-12-17T05:46:43.993344",
        "meta_mean_motion": 14.14952621,
        "meta_eccentricity": 0.0128827,
        "meta_inclination": 98.7127,
        "meta_ra_of_asc_node": 91.2501,
        "meta_arg_of_pericenter": 174.5832,
        "meta_mean_anomaly": 215.765,
        "meta_ephemeris_type": 0,
        "meta_classification_type": "U",
        "meta_norad_cat_id": 30954,
        "meta_element_set_no": 999,
        "meta_rev_at_epoch": 96451,
        "meta_bstar": 0.00083130847,
        "meta_mean_motion_dot": 1.699e-05,
        "meta_mean_motion_ddot": 0,
        "tle_line1": "1 30954U 99025BAU 25351.24078696  .00001699  00000+0  83131-3 0  9997",
        "tle_line2": "2 30954  98.7127  91.2501 0128827 174.5832 215.7650 14.14952621964519"
      },
      "geometry": {
        "type": "Point",
        "coordinates": [
          109.38908449749879,
          -63.375536008232814
        ]
      }
    },
    {
      "type": "Feature",
      "properties": {
        "norad_id": 30956,
        "name": "FENGYUN 1C DEB",
        "group": "fengyun-1c-debris",
        "lat": -78.42887023368236,
        "lon": 74.35440036615928,
        "alt_km": 829.9536133629517,
        "timestamp": "2025-12-17T13:48:37.834290+00:00",
        "meta_object_name": "FENGYUN 1C DEB",
        "meta_object_id": "1999-025BAW",
        "meta_epoch": "2025-12-17T02:37:38.055936",
        "meta_mean_motion": 14.14223806,
        "meta_eccentricity": 0.00491555,
        "meta_inclination": 98.7599,
        "meta_ra_of_asc_node": 25.0399,
        "meta_arg_of_pericenter": 330.2238,
        "meta_mean_anomaly": 96.7943,
        "meta_ephemeris_type": 0,
        "meta_classification_type": "U",
        "meta_norad_cat_id": 30956,
        "meta_element_set_no": 999,
        "meta_rev_at_epoch": 96369,
        "meta_bstar": 0.00084762551,
        "meta_mean_motion_dot": 1.592e-05,
        "meta_mean_motion_ddot": 0,
        "tle_line1": "1 30956U 99025BAW 25351.10946824  .00001592  00000+0  84763-3 0  9995",
        "tle_line2": "2 30956  98.7599  25.0399 0049155 330.2238  96.7943 14.14223806963697"
      },
      "geometry": {
        "type": "Point",
        "coordinates": [
          74.35440036615928,
          -78.42887023368236
        ]
      }
    },
    {
      "type": "Feature",
      "properties": {
        "norad_id": 30960,
        "name": "FENGYUN 1C DEB",
        "group": "fengyun-1c-debris",
        "lat": -56.34774860657381,
        "lon": 121.80370526687082,
        "alt_km": 803.2326626954437,
        "timestamp": "2025-12-17T13:48:37.834300+00:00",
        "meta_object_name": "FENGYUN 1C DEB",
        "meta_object_id": "1999-025BBA",
        "meta_epoch": "2025-12-16T13:31:35.819328",
        "meta_mean_motion": 14.66959578,
        "meta_eccentricity": 0.01961764,
        "meta_inclination": 99.0006,
        "meta_ra_of_asc_node": 106.9192,
        "meta_arg_of_pericenter": 150.1587,
        "meta_mean_anomaly": 211.0974,
        "meta_ephemeris_type": 0,
        "meta_classification_type": "U",
        "meta_norad_cat_id": 30960,
        "meta_element_set_no": 999,
        "meta_rev_at_epoch": 98754,
        "meta_bstar": 0.0010979892,
        "meta_mean_motion_dot": 8.15e-05,
        "meta_mean_motion_ddot": 0,
        "tle_line1": "1 30960U 99025BBA 25350.56360902  .00008150  00000+0  10980-2 0  9992",
        "tle_line2": "2 30960  99.0006 106.9192 0196176 150.1587 211.0974 14.66959578987546"
      },
      "geometry": {
        "type": "Point",
        "coordinates": [
          121.80370526687082,
          -56.34774860657381
        ]
      }
    },
    {
      "type": "Feature",
      "properties": {
        "norad_id": 30967,
        "name": "FENGYUN 1C DEB",
        "group": "fengyun-1c-debris",
        "lat": 0.0659899259551039,
        "lon": -61.96596536353024,
        "alt_km": 752.7016321933515,
        "timestamp": "2025-12-17T13:48:37.834309+00:00",
        "meta_object_name": "FENGYUN 1C DEB",
        "meta_object_id": "1999-025BBH",
        "meta_epoch": "2025-12-15T07:25:34.027968",
        "meta_mean_motion": 14.57161956,
        "meta_eccentricity": 0.00946657,
        "meta_inclination": 98.7631,
        "meta_ra_of_asc_node": 295.6611,
        "meta_arg_of_pericenter": 231.683,
        "meta_mean_anomaly": 127.5828,
        "meta_ephemeris_type": 0,
        "meta_classification_type": "U",
        "meta_norad_cat_id": 30967,
        "meta_element_set_no": 999,
        "meta_rev_at_epoch": 99051,
        "meta_bstar": 0.00054370767,
        "meta_mean_motion_dot": 2.551e-05,
        "meta_mean_motion_ddot": 0,
        "tle_line1": "1 30967U 99025BBH 25349.30942162  .00002551  00000+0  54371-3 0  9995",
        "tle_line2": "2 30967  98.7631 295.6611 0094665 231.6830 127.5828 14.57161956990516"
      },
      "geometry": {
        "type": "Point",
        "coordinates": [
          -61.96596536353024,
          0.0659899259551039
        ]
      }
    },
    {
      "type": "Feature",
      "properties": {
        "norad_id": 30971,
        "name": "FENGYUN 1C DEB",
        "group": "fengyun-1c-debris",
        "lat": 79.34436083323654,
        "lon": -84.35868950856954,
        "alt_km": 628.0344106668617,
        "timestamp": "2025-12-17T13:48:37.834319+00:00",
        "meta_object_name": "FENGYUN 1C DEB",
        "meta_object_id": "1999-025BBM",
        "meta_epoch": "2025-12-16T09:42:10.613664",
        "meta_mean_motion": 14.71736877,
        "meta_eccentricity": 0.01638754,
        "meta_inclination": 99.2099,
        "meta_ra_of_asc_node": 34.7356,
        "meta_arg_of_pericenter": 179.8747,
        "meta_mean_anomaly": 195.8944,
        "meta_ephemeris_type": 0,
        "meta_classification_type": "U",
        "meta_norad_cat_id": 30971,
        "meta_element_set_no": 999,
        "meta_rev_at_epoch": 99771,
        "meta_bstar": 0.00043371328,
        "meta_mean_motion_dot": 3.268e-05,
        "meta_mean_motion_ddot": 0,
        "tle_line1": "1 30971U 99025BBM 25350.40428951  .00003268  00000+0  43371-3 0  9992",
        "tle_line2": "2 30971  99.2099  34.7356 0163875 179.8747 195.8944 14.71736877997715"
      },
      "geometry": {
        "type": "Point",
        "coordinates": [
          -84.35868950856954,
          79.34436083323654
        ]
      }
    }
  ]
}